KUIPER-00027            
1 63740U 25088S   25353.43492691  .00003709  00000+0  51499-3 0  9998
2 63740  51.9010  90.4626 0003723 249.7377 110.3185 14.79963679 35737
KUIPER-00028            
1 63741U 25088T   25353.65370721  .00001385  00000+0  21183-3 0  9997
2 63741  51.9017  87.4604 0003764 272.0994  87.9537 14.79698328 36205
KUIPER-00029            
1 63742U 25088U   25353.75001156  .00028218  00000+0  40102-2 0  9997
2 63742  51.9012  84.8898 0008309 215.2939 118.9009 14.76667888  4629
KUIPER-00030            
1 63743U 25088V   25353.62129497 -.00006927  00000+0 -87922-3 0  9990
2 63743  51.9017 104.6005 0015440 162.3830 197.7671 14.79885270 35772
KUIPER-00031            
1 63744U 25088W   25353.56835980  .00006829  00000+0  92411-3 0  9993
2 63744  51.9010  90.9069 0003877 200.2042 159.8767 14.79924326 35671
KUIPER-00032            
1 63745U 25088X   25353.54402103  .00007693  00000+0  24284-3 0  9992
2 63745  51.8722  50.6236 0003612 199.9814 160.1031 15.33809946 37232
KUIPER-00033            
1 63746U 25088Y   25353.33351057  .00008232  00000+0  11066-2 0  9994
2 63746  51.9018 121.9289 0003111 251.2508 108.8117 14.79965185 35709
KUIPER-00034            
1 63747U 25088Z   25353.44141497  .00006560  00000+0  88912-3 0  9999
2 63747  51.9024  83.9711 0001705 193.4973 166.5944 14.79914391 35920
